{
  "norad_id": 61061,
  "name": "STARLINK-11233 [DTC]",
  "history": [
    {
      "epoch": "2026-03-28T19:58:10.646688Z",
      "apogee_km": 360.4423682638071,
      "perigee_km": 358.9026440354628,
      "latitude_deg": 2.241708570532232e-05,
      "longitude_deg": 91.23899628248182,
      "height_km": 360.4890712430546,
      "semi_major_axis_km": 6737.809506149635,
      "eccentricity": 0.00011426,
      "inclination_deg": 53.1582,
      "raan_deg": 217.0302,
      "arg_perigee_deg": 82.7724,
      "mean_anomaly_deg": 277.3424,
      "mean_motion_rev_day": 15.69728956
    },
    {
      "epoch": "2026-03-30T01:00:11.012832Z",
      "apogee_km": 360.2937056696237,
      "perigee_km": 359.1506952348591,
      "latitude_deg": -2.8855537121077466e-06,
      "longitude_deg": 8.581691513897914,
      "height_km": 360.6266417547481,
      "semi_major_axis_km": 6737.859200452241,
      "eccentricity": 8.482e-05,
      "inclination_deg": 53.1587,
      "raan_deg": 211.0668,
      "arg_perigee_deg": 89.0565,
      "mean_anomaly_deg": 271.055,
      "mean_motion_rev_day": 15.6971159
    },
    {
      "epoch": "2026-03-30T13:13:39.589824Z",
      "apogee_km": 360.8049777227325,
      "perigee_km": 358.67594320277567,
      "latitude_deg": -1.5400100456845382e-05,
      "longitude_deg": -177.797534696605,
      "height_km": 360.8019782302878,
      "semi_major_axis_km": 6737.877460462754,
      "eccentricity": 0.00015799,
      "inclination_deg": 53.1605,
      "raan_deg": 208.5587,
      "arg_perigee_deg": 98.016,
      "mean_anomaly_deg": 262.1037,
      "mean_motion_rev_day": 15.69705209
    },
    {
      "epoch": "2026-03-30T14:45:21.177216Z",
      "apogee_km": 360.70609449672065,
      "perigee_km": 358.8337649190935,
      "latitude_deg": -5.725934260824389e-05,
      "longitude_deg": 158.9020916794798,
      "height_km": 360.7480358872069,
      "semi_major_axis_km": 6737.906929707907,
      "eccentricity": 0.00013894,
      "inclination_deg": 53.1598,
      "raan_deg": 208.2444,
      "arg_perigee_deg": 93.9727,
      "mean_anomaly_deg": 266.1449,
      "mean_motion_rev_day": 15.69694911
    },
    {
      "epoch": "2026-03-31T07:33:51.379200Z",
      "apogee_km": 360.3734472809938,
      "perigee_km": 359.0339645486574,
      "latitude_deg": -8.64217932281153e-06,
      "longitude_deg": -97.36950883984346,
      "height_km": 360.5047910357551,
      "semi_major_axis_km": 6737.840705914825,
      "eccentricity": 9.94e-05,
      "inclination_deg": 53.1584,
      "raan_deg": 204.7889,
      "arg_perigee_deg": 80.3242,
      "mean_anomaly_deg": 279.7888,
      "mean_motion_rev_day": 15.69718053
    },
    {
      "epoch": "2026-04-02T13:02:47.528160Z",
      "apogee_km": 360.2870386063587,
      "perigee_km": 359.15831235352107,
      "latitude_deg": 6.678061838507598e-05,
      "longitude_deg": 167.21415740595776,
      "height_km": 360.5326586273271,
      "semi_major_axis_km": 6737.859675479939,
      "eccentricity": 8.376e-05,
      "inclination_deg": 53.1589,
      "raan_deg": 193.8029,
      "arg_perigee_deg": 79.3897,
      "mean_anomaly_deg": 280.7216,
      "mean_motion_rev_day": 15.69711424
    },
    {
      "epoch": "2026-04-03T13:29:47.099616Z",
      "apogee_km": 360.62928306510184,
      "perigee_km": 359.0943669327671,
      "latitude_deg": -3.2898252512125564e-05,
      "longitude_deg": 154.4410480893094,
      "height_km": 360.86868938528,
      "semi_major_axis_km": 6737.998824998935,
      "eccentricity": 0.0001139,
      "inclination_deg": 53.1587,
      "raan_deg": 188.7822,
      "arg_perigee_deg": 96.9906,
      "mean_anomaly_deg": 263.1241,
      "mean_motion_rev_day": 15.69662799
    },
    {
      "epoch": "2026-04-04T15:28:20.670816Z",
      "apogee_km": 360.3242951844877,
      "perigee_km": 358.9969490529311,
      "latitude_deg": 1.5053993206509071e-05,
      "longitude_deg": 118.39760708475109,
      "height_km": 360.69683169605344,
      "semi_major_axis_km": 6737.797622118709,
      "eccentricity": 9.85e-05,
      "inclination_deg": 53.1577,
      "raan_deg": 183.4454,
      "arg_perigee_deg": 100.6473,
      "mean_anomaly_deg": 259.4656,
      "mean_motion_rev_day": 15.69733109
    },
    {
      "epoch": "2026-04-05T14:23:39.094656Z",
      "apogee_km": 360.595286371753,
      "perigee_km": 359.0805896056936,
      "latitude_deg": 2.5756079790658166e-05,
      "longitude_deg": 128.92328341018367,
      "height_km": 361.1925910550756,
      "semi_major_axis_km": 6737.9749379887235,
      "eccentricity": 0.0001124,
      "inclination_deg": 53.1588,
      "raan_deg": 178.7392,
      "arg_perigee_deg": 125.6033,
      "mean_anomaly_deg": 234.509,
      "mean_motion_rev_day": 15.69671146
    },
    {
      "epoch": "2026-04-05T14:23:39.095520Z",
      "apogee_km": 360.59548851100135,
      "perigee_km": 359.08038746644525,
      "latitude_deg": 2.3502776101371096e-05,
      "longitude_deg": 128.923278121589,
      "height_km": 361.192708732412,
      "semi_major_axis_km": 6737.9749379887235,
      "eccentricity": 0.00011243,
      "inclination_deg": 53.1588,
      "raan_deg": 178.7392,
      "arg_perigee_deg": 125.6033,
      "mean_anomaly_deg": 234.509,
      "mean_motion_rev_day": 15.69671146
    },
    {
      "epoch": "2026-04-06T05:40:26.999904Z",
      "apogee_km": 360.5579691281282,
      "perigee_km": 358.7979171086872,
      "latitude_deg": -2.555625132997746e-05,
      "longitude_deg": -104.04598754286805,
      "height_km": 360.74312848309427,
      "semi_major_axis_km": 6737.814943118407,
      "eccentricity": 0.00013061,
      "inclination_deg": 53.1583,
      "raan_deg": 175.5971,
      "arg_perigee_deg": 99.9434,
      "mean_anomaly_deg": 260.1731,
      "mean_motion_rev_day": 15.69727056
    },
    {
      "epoch": "2026-04-07T13:45:50.001696Z",
      "apogee_km": 360.4414450582044,
      "perigee_km": 359.03457675592745,
      "latitude_deg": -1.072992945122051e-05,
      "longitude_deg": 126.69950104383273,
      "height_km": 360.7072866863991,
      "semi_major_axis_km": 6737.875010907066,
      "eccentricity": 0.0001044,
      "inclination_deg": 53.1592,
      "raan_deg": 169.0063,
      "arg_perigee_deg": 94.5356,
      "mean_anomaly_deg": 265.5781,
      "mean_motion_rev_day": 15.69706065
    },
    {
      "epoch": "2026-04-07T13:45:50.002560Z",
      "apogee_km": 360.4411755432038,
      "perigee_km": 359.034846270928,
      "latitude_deg": -7.037032294149922e-06,
      "longitude_deg": 126.69950018517628,
      "height_km": 360.707265371973,
      "semi_major_axis_km": 6737.875010907066,
      "eccentricity": 0.00010436,
      "inclination_deg": 53.1592,
      "raan_deg": 169.0063,
      "arg_perigee_deg": 94.5356,
      "mean_anomaly_deg": 265.5781,
      "mean_motion_rev_day": 15.69706065
    },
    {
      "epoch": "2026-04-08T11:09:23.621472Z",
      "apogee_km": 360.49097930391144,
      "perigee_km": 358.8838734217352,
      "latitude_deg": -3.207399143226893e-06,
      "longitude_deg": 160.53915573497065,
      "height_km": 360.33980796093016,
      "semi_major_axis_km": 6737.824426362823,
      "eccentricity": 0.00011926,
      "inclination_deg": 53.1593,
      "raan_deg": 164.6146,
      "arg_perigee_deg": 71.033,
      "mean_anomaly_deg": 289.0817,
      "mean_motion_rev_day": 15.69723742
    },
    {
      "epoch": "2026-04-09T20:46:26.296896Z",
      "apogee_km": 360.55925913962074,
      "perigee_km": 358.81416279848054,
      "latitude_deg": -2.1098412555603283e-05,
      "longitude_deg": 7.991172672176125,
      "height_km": 360.3365201863061,
      "semi_major_axis_km": 6737.823710969051,
      "eccentricity": 0.0001295,
      "inclination_deg": 53.1597,
      "raan_deg": 157.7084,
      "arg_perigee_deg": 72.4127,
      "mean_anomaly_deg": 287.7032,
      "mean_motion_rev_day": 15.69723992
    },
    {
      "epoch": "2026-04-10T07:28:13.924128Z",
      "apogee_km": 360.1782593843136,
      "perigee_km": 359.2763288699016,
      "latitude_deg": 4.460490876858734e-05,
      "longitude_deg": -155.092918550246,
      "height_km": 360.6180117838069,
      "semi_major_axis_km": 6737.864294127107,
      "eccentricity": 6.693e-05,
      "inclination_deg": 53.1591,
      "raan_deg": 155.512,
      "arg_perigee_deg": 87.0251,
      "mean_anomaly_deg": 273.0844,
      "mean_motion_rev_day": 15.6970981
    },
    {
      "epoch": "2026-04-11T20:08:38.628672Z",
      "apogee_km": 360.3998290492773,
      "perigee_km": 359.05629875553404,
      "latitude_deg": 3.3497233743267516e-06,
      "longitude_deg": 5.765183845493882,
      "height_km": 360.6090877402211,
      "semi_major_axis_km": 6737.865063902405,
      "eccentricity": 9.97e-05,
      "inclination_deg": 53.1587,
      "raan_deg": 147.9792,
      "arg_perigee_deg": 87.2157,
      "mean_anomaly_deg": 272.8975,
      "mean_motion_rev_day": 15.69709541
    },
    {
      "epoch": "2026-04-12T09:53:48.285024Z",
      "apogee_km": 360.6171416451616,
      "perigee_km": 358.8857738270608,
      "latitude_deg": -3.4138930425088457e-06,
      "longitude_deg": 156.08524095271218,
      "height_km": 360.56305450176603,
      "semi_major_axis_km": 6737.8884577361105,
      "eccentricity": 0.00012848,
      "inclination_deg": 53.1597,
      "raan_deg": 145.1543,
      "arg_perigee_deg": 83.2474,
      "mean_anomaly_deg": 276.869,
      "mean_motion_rev_day": 15.69701366
    },
    {
      "epoch": "2026-04-14T12:19:21.730080Z",
      "apogee_km": 360.50863928767103,
      "perigee_km": 358.93710085157545,
      "latitude_deg": -2.35784988234003e-05,
      "longitude_deg": 107.26855212861581,
      "height_km": 360.68055556066304,
      "semi_major_axis_km": 6737.859870069623,
      "eccentricity": 0.00011662,
      "inclination_deg": 53.1588,
      "raan_deg": 134.7979,
      "arg_perigee_deg": 93.2277,
      "mean_anomaly_deg": 266.8874,
      "mean_motion_rev_day": 15.69711356
    }
  ]
}